OBJECT_NAME,OBJECT_ID,EPOCH,MEAN_MOTION,ECCENTRICITY,INCLINATION,RA_OF_ASC_NODE,ARG_OF_PERICENTER,MEAN_ANOMALY,EPHEMERIS_TYPE,CLASSIFICATION_TYPE,NORAD_CAT_ID,ELEMENT_SET_NO,REV_AT_EPOCH,BSTAR,MEAN_MOTION_DOT,MEAN_MOTION_DDOT
2023-091J,2023-091J,2026-06-03T21:40:03.340416,15.13830370,.00131163,97.5056,208.1891,186.9957,173.1093,0,U,57174,999,16162,.24626458E-3,.4392E-4,0
CUBEBEL 2 (EU11S),2023-091K,2026-06-03T21:33:56.115360,15.28818883,.00108113,97.5053,217.9997,155.5463,204.6292,0,U,57175,999,16227,.47775599E-3,.13336E-3,0
SITRO-AIS 5 (KATYS),2023-091L,2026-06-03T22:02:18.790656,15.29133363,.00125042,97.5062,218.6942,144.6195,215.5877,0,U,57176,999,16231,.49557006E-3,.1398E-3,0
ZORKIY-2M 1,2023-091M,2026-06-03T22:06:20.233728,15.20719294,.00140885,97.5092,213.9297,157.2295,202.9568,0,U,57177,999,16198,.36431203E-3,.7965E-4,0
CUBESX-HSE 3 (RS42S),2023-091N,2026-06-03T21:45:12.268800,15.30860578,.00120411,97.5094,220.3290,135.7768,224.4438,0,U,57178,999,16239,.49086134E-3,.14603E-3,0
MONITOR-3 (RS58S),2023-091Q,2026-06-03T20:04:22.390464,15.27556971,.00128512,97.5086,218.1868,142.2665,217.9478,0,U,57180,999,16225,.42929842E-3,.11528E-3,0
MONITOR-4 (RS57S),2023-091S,2026-06-03T21:09:40.913856,15.27655842,.00127964,97.5079,218.2031,142.4768,217.7366,0,U,57182,999,16226,.43931918E-3,.11834E-3,0
MONITOR-2 (RS39S),2023-091U,2026-06-03T22:31:50.566080,15.18779671,.00120561,97.5075,213.3083,152.1856,208.0026,0,U,57184,999,16194,.2509199E-3,.5158E-4,0
SVYATOBOR 1 (RS60S),2023-091X,2026-06-03T21:12:16.629120,15.26375913,.00107059,97.5090,218.6290,134.5692,225.6422,0,U,57187,999,16228,.38110167E-3,.9855E-4,0
HORS 1,2023-091Y,2026-06-03T22:27:08.701632,15.26476571,.00101947,97.5069,218.4454,133.8589,226.3494,0,U,57188,999,16229,.38255558E-3,.9922E-4,0
VIZARD-METEO (RS38S),2023-091Z,2026-06-03T22:06:42.131808,15.35581284,.00087526,97.5093,224.1448,116.8088,243.4051,0,U,57189,999,16265,.544707E-3,.18804E-3,0
SITRO-AIS 6 (CHIRKIN),2023-091AC,2026-06-03T22:22:41.993472,15.25667369,.00127266,97.5070,217.8973,147.7418,212.4601,0,U,57192,999,16226,.44942298E-3,.114E-3,0
SITRO-AIS 8 (ANOKHIN),2023-091AD,2026-06-03T21:25:48.932544,15.31756572,.00116949,97.5059,220.2039,140.7885,219.4205,0,U,57193,999,16241,.51403585E-3,.1573E-3,0
SITRO-AIS 7 (FARTUSHNIY),2023-091AE,2026-06-03T22:23:22.020864,15.25361754,.00125511,97.5067,217.7295,148.6979,211.5009,0,U,57194,999,16225,.44642549E-3,.11218E-3,0
AVION KALUGA 650,2023-091AF,2026-06-03T22:22:48.775872,15.20202832,.00112895,97.5092,214.5636,149.9870,210.2014,0,U,57195,999,16201,.2924407E-3,.6277E-4,0
HORS 2,2023-091AG,2026-06-03T21:39:45.281088,15.31530324,.00095307,97.5091,221.7543,127.1313,233.0801,0,U,57196,999,16249,.48701506E-3,.14782E-3,0
A-SEANSAT-PG1,2023-091AH,2026-06-03T22:09:04.535424,15.36475591,.00086559,97.5082,224.2261,123.8539,236.3530,0,U,57197,999,16267,.58800885E-3,.209E-3,0
SITRO-AIS 10 (BURDAEV),2023-091AK,2026-06-03T21:57:13.485024,15.38081583,.00080262,97.5082,225.1449,119.1175,241.0874,0,U,57199,999,16272,.57880471E-3,.21666E-3,0
SITRO-AIS 9 (SHCHUKIN),2023-091AM,2026-06-03T20:55:33.786048,15.37609251,.00082289,97.5081,224.8413,119.4346,240.7721,0,U,57201,999,16270,.60072847E-3,.22151E-3,0
UTMN 2 (RS27S),2023-091AP,2026-06-03T22:21:02.415744,15.31709132,.00094402,97.5090,221.9718,122.9547,237.2603,0,U,57203,999,16251,.48082768E-3,.14674E-3,0
SITRO-AIS 12 (SMIRENNIY),2023-091AQ,2026-06-03T22:19:21.913536,15.37899468,.00078841,97.5094,225.3598,114.1931,246.0139,0,U,57204,999,16273,.58106711E-3,.21622E-3,0
SITRO-AIS 11 (SHEFFER),2023-091AU,2026-06-03T21:10:13.162656,15.38309013,.00078059,97.5092,225.5489,114.3372,245.8689,0,U,57208,999,16274,.57917207E-3,.2184E-3,0
H2SAT (HEINRICH HERTZ),2023-093A,2026-06-03T22:09:57.197952,1.00272458,.00009728,0.0448,125.0236,330.4081,130.1108,0,U,57213,999,1078,0,.14E-6,0
KUZGTU 1 (RS47S),2023-091AV,2026-06-03T21:15:39.631104,15.29537269,.00121619,97.5066,219.2334,139.0591,221.1564,0,U,57217,999,16234,.47072955E-3,.13438E-3,0
QIANKUN-1,2023-103B,2026-05-31T16:15:12.115584,16.07626689,.00240549,96.1558,197.6671,142.5816,217.7151,0,U,57422,999,16464,.28012432E-4,.22767E-3,.1887657E-5
FENGYUN 3F,2023-111A,2026-06-03T22:30:54.426816,14.19936699,.00015547,98.6837,225.1933,103.0292,257.1059,0,U,57490,999,14698,.50657043E-4,.64E-6,0
HJ-2F,2023-116A,2026-06-03T23:22:27.399072,15.22121259,.00105892,97.3843,160.4248,90.0546,270.1904,0,U,57519,999,15674,.37445566E-3,.8527E-4,0
XRISM,2023-137A,2026-06-02T06:36:16.681248,15.12327778,.00076942,31.0020,96.1840,175.1081,184.9634,0,U,57800,999,15060,.31044403E-3,.5615E-4,0
